format  = 'OEF2.0'       ! file format
rectype = 'ML'           ! record type (1L/ML)
refsys  = ECLM J2000     ! default reference system
END_OF_HEADER
1862
! Equinoctial elements: a, e*sin(LP), e*cos(LP), tan(i/2)*sin(LN), tan(i/2)*cos(LN), mean long.
 EQU   1.4701327303133416E+00  -0.347997673402040   0.438628665083009    0.032422437795482    0.045038613504679 174.9957100982316
 MJD     54668.051354402 TDT
 MAG  16.060  0.090
! Non-grav parameters: model used, actual number in use, dimension
 LSP   0  0    6
! RMS    8.53668E-10   2.26717E-08   5.74419E-09   2.98356E-08   2.31191E-08   1.51538E-06
! EIG   7.95739E-11   7.05601E-10   1.54510E-09   1.35400E-08   3.24677E-08   3.78355E-08
! WEA   0.01363   0.51870   0.13515   0.28708   0.48837   0.62576
 COV   7.287488579757116E-19  1.686847120926070E-17  4.010003600843116E-18
 COV  -1.180745444928167E-17  8.034574250593214E-18  8.860870718733954E-16
 COV   5.140037446298903E-16  1.238530013875658E-16 -9.916891740900795E-17
 COV   2.675559917693260E-16  3.266490580970769E-14  3.299574582102208E-17
 COV  -3.335611661976569E-18  8.481046945841306E-17  7.713625988235384E-15
 COV   8.901625625028793E-16  3.923122570352937E-16  1.452881253301630E-15
 COV   5.344943058008415E-16  1.603306701672967E-14  2.296362358658831E-12
 NOR   1.553324637576804E+20 -1.624745069554624E+19  8.297507776954657E+18
 NOR  -8.478748807862707E+16  3.080008658405875E+17  1.412078862118941E+17
 NOR   2.894427737277158E+18 -1.302288351856251E+18  3.218790994917962E+17
 NOR  -3.951726081490713E+17 -2.797294211060531E+16  1.016879589558650E+18
 NOR  -9.061685505392694E+16  9.288757264609963E+16  1.131588222839142E+16
 NOR   8.572016948283608E+16 -1.006014018262263E+17 -3.593347983846824E+15
 NOR   1.221344239785517E+17  4.401236108070472E+15  2.773865133483840E+14
!MOID  0.02552    0
!NODES -0.11729  0.18607
